COSMOS 2425 (716)       
1 29670U 06062A   18242.16395191  .00000024  00000-0  10000-3 0  9990
2 29670  65.2430 290.0387 0020096 340.4597 324.6315  2.13105012 90888
COSMOS 2426 (717)       
1 29671U 06062B   18241.66088543  .00000024  00000-0  10000-3 0  9995
2 29671  65.2602 290.1540 0019153 170.9761 323.3818  2.13102992 90881
COSMOS 2433 (720)       
1 32275U 07052A   18242.25193899 -.00000002  00000-0  10000-3 0  9993
2 32275  65.7241  50.8769 0000974 201.1148   2.5299  2.13104556 84408
COSMOS 2432 (719)       
1 32276U 07052B   18241.66050439 -.00000004  00000-0  10000-3 0  9992
2 32276  65.7344  50.9756 0009618 344.4734  77.2538  2.13103860 84396
COSMOS 2434 (721)       
1 32393U 07065A   18241.79663035  .00000025  00000-0  00000+0 0  9999
2 32393  64.8581 288.9903 0003759 146.7554 315.4728  2.13103050 83106
COSMOS 2436 (723)       
1 32395U 07065C   18242.07176152  .00000025  00000-0  10000-3 0  9997
2 32395  64.8675 289.0316 0013582 353.3807  10.7849  2.13104397 83041
COSMOS 2456 (730)       
1 36111U 09070A   18241.77279060  .00000031  00000-0  00000-0 0  9996
2 36111  64.1890 168.5862 0005551 307.6336 308.7548  2.13103051 67769
COSMOS 2457 (733)       
1 36112U 09070B   18241.54140277  .00000030  00000-0  00000+0 0  9997
2 36112  64.1686 168.5037 0005458 182.5255  22.8559  2.13101641 67762
COSMOS 2458 (734)       
1 36113U 09070C   18241.48217557  .00000030  00000-0  10000-3 0  9992
2 36113  64.1755 168.5189 0002305 345.1874 220.8617  2.13091457 67768
COSMOS 2459 (731)       
1 36400U 10007A   18241.72668934 -.00000005  00000-0  10000-3 0  9992
2 36400  65.6336  49.9468 0025839 356.4010  22.6366  2.13102180 66128
COSMOS 2461 (735)       
1 36401U 10007B   18242.21009051 -.00000003  00000-0  10000-3 0  9995
2 36401  65.6249  49.9050 0008768  76.2281 224.2504  2.13102165 66125
COSMOS 2460 (732)       
1 36402U 10007C   18241.78027721 -.00000005  00000-0  10000-3 0  9993
2 36402  65.6165  49.8875 0002291  99.3674 271.8313  2.13101558 66125
COSMOS 2464 (736)       
1 37139U 10041C   18241.99839274  .00000024  00000-0  00000+0 0  9991
2 37139  64.4599 288.7503 0021899   9.2539 115.5690  2.13102776 62196
COSMOS 2471 (701K)      
1 37372U 11009A   18241.53869486 -.00000006  00000-0  00000+0 0  9994
2 37372  65.6118  49.8400 0007326 221.7360 109.6661  2.13107549 58380
COSMOS 2474 (742)       
1 37829U 11055A   18241.73134419  .00000032  00000-0  00000-0 0  9994
2 37829  64.5110 169.3356 0009812 251.0721 191.3168  2.13101937 53766
COSMOS 2476 (744)       
1 37867U 11064A   18241.67760411  .00000031  00000-0  00000+0 0  9994
2 37867  64.4931 169.3983 0019476 243.6572 203.5652  2.13101984 53117
COSMOS 2477 (745)       
1 37868U 11064B   18241.70378042  .00000032  00000-0  00000+0 0  9995
2 37868  64.4997 169.4464 0017379 245.1327  41.0286  2.13101845 53068
COSMOS 2475 (743)       
1 37869U 11064C   18241.65829652  .00000031  00000-0  00000+0 0  9997
2 37869  64.5074 169.4440 0021839 267.8586 300.2084  2.13102202 53079
COSMOS 2485 (747)       
1 39155U 13019A   18242.10187556  .00000033  00000-0  00000+0 0  9992
2 39155  64.6609 169.5091 0019872 238.7886 218.7775  2.13102066 41593
COSMOS 2492 (754)       
1 39620U 14012A   18242.10012944 -.00000004  00000-0  10000-3 0  9995
2 39620  65.5057  49.7526 0012690 336.9576 154.1225  2.13103397 34545
COSMOS 2500 (755)       
1 40001U 14032A   18241.61815659 -.00000006  00000-0  00000-0 0  9999
2 40001  65.4473  49.7326 0005857 184.2441 159.1995  2.13102738 32748
COSMOS 2501 (702K)      
1 40315U 14075A   18241.57231947  .00000022  00000-0  00000+0 0  9997
2 40315  64.1847 289.9516 0017269 208.6457 260.4790  2.13098655 29156
COSMOS 2514 (751)       
1 41330U 16008A   18241.63512149 -.00000007  00000-0  00000+0 0  9990
2 41330  65.2478  49.7663 0008703 201.9789 335.5234  2.13103225 19918
COSMOS 2516 (753)       
1 41554U 16032A   18242.11884932  .00000022  00000-0  00000+0 0  9997
2 41554  64.4053 289.8206 0014643 220.0880 219.4594  2.13101916 17530
COSMOS 2522 (752)       
1 42939U 17055A   18242.28678304  .00000023  00000-0  00000+0 0  9994
2 42939  64.6362 289.8013 0009513 240.5929 194.2103  2.13101943  7298
